ELECTRON R/B            
1 66317U 25252B   25324.85645713  .00666139  15004-3  14081-2 0  9994
2 66317  41.9937 186.4257 0187897 341.4317  17.9744 15.73797059  2359
ELECTRON KICK STAGE R/B 
1 66318U 25252C   25323.68195529  .00902842  76259-5  15495-2 0  9995
2 66318  41.9848 193.2188 0172903 124.1320 237.6068 15.79668006  2177
STARLINK-35442          
1 66319U 25253A   25325.00002315 -.00017445  00000+0 -11066-3 0  9999
2 66319  42.9994 112.6059 0001581 272.9818 303.8676 15.75045640  3531
STARLINK-34616          
1 66320U 25253B   25325.00002315  .00017244  00000+0  11518-3 0  9998
2 66320  42.9993 112.6006 0001797 270.4892 308.2767 15.75030984  3645
STARLINK-34615          
1 66321U 25253C   25325.00002315 -.00012659  00000+0 -79383-4 0  9991
2 66321  42.9994 112.5960 0001739 268.2477 312.4279 15.75048496  3489
STARLINK-35292          
1 66322U 25253D   25325.00002315 -.00000742  00000+0 -17217-5 0  9991
2 66322  43.0037 112.5765 0001661 278.4915 309.8619 15.75033530  3433
STARLINK-35309          
1 66323U 25253E   25325.00002315  .00023655  00000+0  15676-3 0  9993
2 66323  43.0037 112.5634 0001691 257.0693 337.0413 15.75025256  3439
STARLINK-35506          
1 66324U 25253F   25325.00002315 -.00000684  00000+0 -13385-5 0  9990
2 66324  42.9994 112.5809 0002000 271.8333 314.5984 15.75043394  3531
STARLINK-35504          
1 66325U 25253G   25325.00002315 -.00010441  00000+0 -64900-4 0  9991
2 66325  42.9994 112.5725 0001684 273.4767 316.7724 15.75054306  3435
STARLINK-35479          
1 66326U 25253H   25325.00002315 -.00008434  00000+0 -51813-4 0  9990
2 66326  42.9992 112.5568 0001901 285.2587 310.7435 15.75052536  3539
STARLINK-35507          
1 66327U 25253J   25325.00002315 -.00064228  00000+0 -41754-3 0  9996
2 66327  42.9993 112.5862 0001915 273.6640 310.8431 15.75072793  3538
STARLINK-35460          
1 66328U 25253K   25325.00002315 -.00088858  00000+0 -58019-3 0  9994
2 66328  42.9992 112.5420 0001638 267.3083 334.4492 15.75087916  3533
