CCSDS_OMM_VERS = 2.0
CREATION_DATE  = 
ORIGINATOR     = 

OBJECT_NAME    = ELECTRON R/B
OBJECT_ID      = 2025-252B
CENTER_NAME    = EARTH
REF_FRAME      = TEME
TIME_SYSTEM    = UTC
MEAN_ELEMENT_THEORY = SGP/SGP4

EPOCH          = 2025-11-20T20:33:17.896032
MEAN_MOTION    = 15.73797059
ECCENTRICITY   = .01878973
INCLINATION    = 41.9937
RA_OF_ASC_NODE = 186.4257
ARG_OF_PERICENTER = 341.4317
MEAN_ANOMALY   = 17.9744

EPHEMERIS_TYPE = 0
CLASSIFICATION_TYPE = U
NORAD_CAT_ID   = 66317
ELEMENT_SET_NO = 999
REV_AT_EPOCH   = 235
BSTAR          = .14081185E-2
MEAN_MOTION_DOT = .666139E-2
MEAN_MOTION_DDOT = .15004415E-3

CCSDS_OMM_VERS = 2.0
CREATION_DATE  = 
ORIGINATOR     = 

OBJECT_NAME    = ELECTRON KICK STAGE R/B
OBJECT_ID      = 2025-252C
CENTER_NAME    = EARTH
REF_FRAME      = TEME
TIME_SYSTEM    = UTC
MEAN_ELEMENT_THEORY = SGP/SGP4

EPOCH          = 2025-11-19T16:22:00.937056
MEAN_MOTION    = 15.79668006
ECCENTRICITY   = .01729038
INCLINATION    = 41.9848
RA_OF_ASC_NODE = 193.2188
ARG_OF_PERICENTER = 124.1320
MEAN_ANOMALY   = 237.6068

EPHEMERIS_TYPE = 0
CLASSIFICATION_TYPE = U
NORAD_CAT_ID   = 66318
ELEMENT_SET_NO = 999
REV_AT_EPOCH   = 217
BSTAR          = .15495022E-2
MEAN_MOTION_DOT = .902842E-2
MEAN_MOTION_DDOT = .762594E-5

CCSDS_OMM_VERS = 2.0
CREATION_DATE  = 
ORIGINATOR     = 

OBJECT_NAME    = STARLINK-35442
OBJECT_ID      = 2025-253A
CENTER_NAME    = EARTH
REF_FRAME      = TEME
TIME_SYSTEM    = UTC
MEAN_ELEMENT_THEORY = SGP/SGP4

EPOCH          = 2025-11-21T00:00:02.000160
MEAN_MOTION    = 15.75045640
ECCENTRICITY   = .00015819
INCLINATION    = 42.9994
RA_OF_ASC_NODE = 112.6059
ARG_OF_PERICENTER = 272.9818
MEAN_ANOMALY   = 303.8676

EPHEMERIS_TYPE = 0
CLASSIFICATION_TYPE = U
NORAD_CAT_ID   = 66319
ELEMENT_SET_NO = 999
REV_AT_EPOCH   = 353
BSTAR          = -.11065941E-3
MEAN_MOTION_DOT = -.17445E-3
MEAN_MOTION_DDOT = 0

CCSDS_OMM_VERS = 2.0
CREATION_DATE  = 
ORIGINATOR     = 

OBJECT_NAME    = STARLINK-34616
OBJECT_ID      = 2025-253B
CENTER_NAME    = EARTH
REF_FRAME      = TEME
TIME_SYSTEM    = UTC
MEAN_ELEMENT_THEORY = SGP/SGP4

EPOCH          = 2025-11-21T00:00:02.000160
MEAN_MOTION    = 15.75030984
ECCENTRICITY   = .00017979
INCLINATION    = 42.9993
RA_OF_ASC_NODE = 112.6006
ARG_OF_PERICENTER = 270.4892
MEAN_ANOMALY   = 308.2767

EPHEMERIS_TYPE = 0
CLASSIFICATION_TYPE = U
NORAD_CAT_ID   = 66320
ELEMENT_SET_NO = 999
REV_AT_EPOCH   = 364
BSTAR          = .11517611E-3
MEAN_MOTION_DOT = .17244E-3
MEAN_MOTION_DDOT = 0

CCSDS_OMM_VERS = 2.0
CREATION_DATE  = 
ORIGINATOR     = 

OBJECT_NAME    = STARLINK-34615
OBJECT_ID      = 2025-253C
CENTER_NAME    = EARTH
REF_FRAME      = TEME
TIME_SYSTEM    = UTC
MEAN_ELEMENT_THEORY = SGP/SGP4

EPOCH          = 2025-11-21T00:00:02.000160
MEAN_MOTION    = 15.75048496
ECCENTRICITY   = .00017396
INCLINATION    = 42.9994
RA_OF_ASC_NODE = 112.5960
ARG_OF_PERICENTER = 268.2477
MEAN_ANOMALY   = 312.4279

EPHEMERIS_TYPE = 0
CLASSIFICATION_TYPE = U
NORAD_CAT_ID   = 66321
ELEMENT_SET_NO = 999
REV_AT_EPOCH   = 348
BSTAR          = -.79383218E-4
MEAN_MOTION_DOT = -.12659E-3
MEAN_MOTION_DDOT = 0

CCSDS_OMM_VERS = 2.0
CREATION_DATE  = 
ORIGINATOR     = 

OBJECT_NAME    = STARLINK-35292
OBJECT_ID      = 2025-253D
CENTER_NAME    = EARTH
REF_FRAME      = TEME
TIME_SYSTEM    = UTC
MEAN_ELEMENT_THEORY = SGP/SGP4

EPOCH          = 2025-11-21T00:00:02.000160
MEAN_MOTION    = 15.75033530
ECCENTRICITY   = .0001661
INCLINATION    = 43.0037
RA_OF_ASC_NODE = 112.5765
ARG_OF_PERICENTER = 278.4915
MEAN_ANOMALY   = 309.8619

EPHEMERIS_TYPE = 0
CLASSIFICATION_TYPE = U
NORAD_CAT_ID   = 66322
ELEMENT_SET_NO = 999
REV_AT_EPOCH   = 343
BSTAR          = -.1721687E-5
MEAN_MOTION_DOT = -.742E-5
MEAN_MOTION_DDOT = 0

CCSDS_OMM_VERS = 2.0
CREATION_DATE  = 
ORIGINATOR     = 

OBJECT_NAME    = STARLINK-35309
OBJECT_ID      = 2025-253E
CENTER_NAME    = EARTH
REF_FRAME      = TEME
TIME_SYSTEM    = UTC
MEAN_ELEMENT_THEORY = SGP/SGP4

EPOCH          = 2025-11-21T00:00:02.000160
MEAN_MOTION    = 15.75025256
ECCENTRICITY   = .00016919
INCLINATION    = 43.0037
RA_OF_ASC_NODE = 112.5634
ARG_OF_PERICENTER = 257.0693
MEAN_ANOMALY   = 337.0413

EPHEMERIS_TYPE = 0
CLASSIFICATION_TYPE = U
NORAD_CAT_ID   = 66323
ELEMENT_SET_NO = 999
REV_AT_EPOCH   = 343
BSTAR          = .15675783E-3
MEAN_MOTION_DOT = .23655E-3
MEAN_MOTION_DDOT = 0

CCSDS_OMM_VERS = 2.0
CREATION_DATE  = 
ORIGINATOR     = 

OBJECT_NAME    = STARLINK-35506
OBJECT_ID      = 2025-253F
CENTER_NAME    = EARTH
REF_FRAME      = TEME
TIME_SYSTEM    = UTC
MEAN_ELEMENT_THEORY = SGP/SGP4

EPOCH          = 2025-11-21T00:00:02.000160
MEAN_MOTION    = 15.75043394
ECCENTRICITY   = .00020009
INCLINATION    = 42.9994
RA_OF_ASC_NODE = 112.5809
ARG_OF_PERICENTER = 271.8333
MEAN_ANOMALY   = 314.5984

EPHEMERIS_TYPE = 0
CLASSIFICATION_TYPE = U
NORAD_CAT_ID   = 66324
ELEMENT_SET_NO = 999
REV_AT_EPOCH   = 353
BSTAR          = -.1338492E-5
MEAN_MOTION_DOT = -.684E-5
MEAN_MOTION_DDOT = 0

CCSDS_OMM_VERS = 2.0
CREATION_DATE  = 
ORIGINATOR     = 

OBJECT_NAME    = STARLINK-35504
OBJECT_ID      = 2025-253G
CENTER_NAME    = EARTH
REF_FRAME      = TEME
TIME_SYSTEM    = UTC
MEAN_ELEMENT_THEORY = SGP/SGP4

EPOCH          = 2025-11-21T00:00:02.000160
MEAN_MOTION    = 15.75054306
ECCENTRICITY   = .00016849
INCLINATION    = 42.9994
RA_OF_ASC_NODE = 112.5725
ARG_OF_PERICENTER = 273.4767
MEAN_ANOMALY   = 316.7724

EPHEMERIS_TYPE = 0
CLASSIFICATION_TYPE = U
NORAD_CAT_ID   = 66325
ELEMENT_SET_NO = 999
REV_AT_EPOCH   = 343
BSTAR          = -.64899945E-4
MEAN_MOTION_DOT = -.10441E-3
MEAN_MOTION_DDOT = 0

CCSDS_OMM_VERS = 2.0
CREATION_DATE  = 
ORIGINATOR     = 

OBJECT_NAME    = STARLINK-35479
OBJECT_ID      = 2025-253H
CENTER_NAME    = EARTH
REF_FRAME      = TEME
TIME_SYSTEM    = UTC
MEAN_ELEMENT_THEORY = SGP/SGP4

EPOCH          = 2025-11-21T00:00:02.000160
MEAN_MOTION    = 15.75052536
ECCENTRICITY   = .0001901
INCLINATION    = 42.9992
RA_OF_ASC_NODE = 112.5568
ARG_OF_PERICENTER = 285.2587
MEAN_ANOMALY   = 310.7435

EPHEMERIS_TYPE = 0
CLASSIFICATION_TYPE = U
NORAD_CAT_ID   = 66326
ELEMENT_SET_NO = 999
REV_AT_EPOCH   = 353
BSTAR          = -.51812617E-4
MEAN_MOTION_DOT = -.8434E-4
MEAN_MOTION_DDOT = 0

CCSDS_OMM_VERS = 2.0
CREATION_DATE  = 
ORIGINATOR     = 

OBJECT_NAME    = STARLINK-35507
OBJECT_ID      = 2025-253J
CENTER_NAME    = EARTH
REF_FRAME      = TEME
TIME_SYSTEM    = UTC
MEAN_ELEMENT_THEORY = SGP/SGP4

EPOCH          = 2025-11-21T00:00:02.000160
MEAN_MOTION    = 15.75072793
ECCENTRICITY   = .00019153
INCLINATION    = 42.9993
RA_OF_ASC_NODE = 112.5862
ARG_OF_PERICENTER = 273.6640
MEAN_ANOMALY   = 310.8431

EPHEMERIS_TYPE = 0
CLASSIFICATION_TYPE = U
NORAD_CAT_ID   = 66327
ELEMENT_SET_NO = 999
REV_AT_EPOCH   = 353
BSTAR          = -.41754363E-3
MEAN_MOTION_DOT = -.64228E-3
MEAN_MOTION_DDOT = 0

CCSDS_OMM_VERS = 2.0
CREATION_DATE  = 
ORIGINATOR     = 

OBJECT_NAME    = STARLINK-35460
OBJECT_ID      = 2025-253K
CENTER_NAME    = EARTH
REF_FRAME      = TEME
TIME_SYSTEM    = UTC
MEAN_ELEMENT_THEORY = SGP/SGP4

EPOCH          = 2025-11-21T00:00:02.000160
MEAN_MOTION    = 15.75087916
ECCENTRICITY   = .00016381
INCLINATION    = 42.9992
RA_OF_ASC_NODE = 112.5420
ARG_OF_PERICENTER = 267.3083
MEAN_ANOMALY   = 334.4492

EPHEMERIS_TYPE = 0
CLASSIFICATION_TYPE = U
NORAD_CAT_ID   = 66328
ELEMENT_SET_NO = 999
REV_AT_EPOCH   = 353
BSTAR          = -.58019317E-3
MEAN_MOTION_DOT = -.88858E-3
MEAN_MOTION_DDOT = 0

